IXPE                    
1 49954U 21121A   24212.91667824  .00005717  00000+0  39482-3 0  9990
2 49954   0.2305  68.1913 0009217 209.4667 218.9920 14.98787781144475
